GLOBALSTAR M023         
1 25621U 99004A   24305.73934337 -.00000069  00000+0  19438-3 0  9994
2 25621  52.0133  29.0618 0009694 344.8339 189.2030 12.62480788186879
GLOBALSTAR M040         
1 25622U 99004B   24305.70045868 -.00000071  00000+0  18204-3 0  9997
2 25622  51.9941  32.9925 0000536 205.3585 310.4857 12.61988242186400
GLOBALSTAR M036         
1 25623U 99004C   24305.94968947 -.00000036  00000+0  67575-3 0  9992
2 25623  51.9937 121.8960 0010429 339.6763 177.1031 11.86579655151880
GLOBALSTAR M038         
1 25624U 99004D   24305.57424418 -.00000042  00000+0  43802-3 0  9996
2 25624  52.0004   9.9433 0001418 298.0893 158.0360 12.32512069174188
GLOBALSTAR M022         
1 25649U 99012A   24305.91345406 -.00000022  00000+0  78455-3 0  9999
2 25649  52.0026 191.4506 0003308  75.0200  31.4562 12.02490201148912
GLOBALSTAR M041         
1 25650U 99012B   24305.77071418 -.00000056  00000+0  37535-3 0  9995
2 25650  52.0028  66.3217 0002064 216.0881 143.9816 11.96660185150933
GLOBALSTAR M046         
1 25651U 99012C   24305.92486437  .00000020  00000+0  11994-2 0  9994
2 25651  52.0027 149.8860 0002774 134.1943   3.3369 12.09402343156046
GLOBALSTAR M037         
1 25652U 99012D   24305.85247087  .00000019  00000+0  68397-3 0  9991
2 25652  51.9980 159.4199 0002829  56.1681  57.6602 12.62423483182439
